*******************************************************************************
Ephemeris / WWW_USER Mon Jul 15 19:18:07 2024 Pasadena, USA      / Horizons    
*******************************************************************************
Target body name: (2018 YU2)                      {source: JPL#5}
Center body name: Earth (399)                     {source: DE441}
Center-site name: Gemini South Obs., Cerro Pachon
*******************************************************************************
Start time      : A.D. 2018-Dec-08 23:45:00.0000 UT      
Stop  time      : A.D. 2018-Dec-09 09:24:00.0000 UT      
Step-size       : 1 minutes
*******************************************************************************
Target pole/equ : undefined
Target radii    : undefined                                                    
Center geodetic : 289.2634, -30.2406227, 2.71233  {E-lon(deg),Lat(deg),Alt(km)}
Center cylindric: 289.2634,5517.21435,-3194.81213 {E-lon(deg),Dxy(km),Dz(km)}
Center pole/equ : ITRF93                          {East-longitude positive}
Center radii    : 6378.137, 6378.137, 6356.752 km {Equator_a, b, pole_c}       
Target primary  : Sun
Vis. interferer : MOON (R_eq= 1737.400) km        {source: DE441}
Rel. light bend : Sun                             {source: DE441}
Rel. lght bnd GM: 1.3271E+11 km^3/s^2                                          
Small-body perts: Yes                             {source: SB441-N16}
Atmos refraction: NO (AIRLESS)
RA format       : HMS
Time format     : CAL 
Calendar mode   : Mixed Julian/Gregorian
RTS-only print  : NO       
EOP file        : eop.240715.p241008                                           
EOP coverage    : DATA-BASED 1962-JAN-20 TO 2024-JUL-15. PREDICTS-> 2024-OCT-07
Units conversion: 1 au= 149597870.700 km, c= 299792.458 km/s, 1 day= 86400.0 s 
Table cut-offs 1: Elevation (-90.0deg=NO ),Airmass (>38.000=NO), Daylight (YES)
Table cut-offs 2: Solar elongation (  0.0,180.0=NO ),Local Hour Angle( 0.0=NO )
Table cut-offs 3: RA/DEC angular rate (     0.0=NO )                           
*******************************************************************************
Initial IAU76/J2000 heliocentric ecliptic osculating elements (au, days, deg.):
  EPOCH=  2458477.5 ! 2018-Dec-25.00 (TDB)         Residual RMS= .22887        
   EC= .1533598773405833   QR= .920984914841031    TP= 2458549.1486254167      
   OM= 279.4515303175068   W=  253.4059234937716   IN= 2.850769624588425       
  Equivalent ICRF heliocentric cartesian coordinates (au, au/d):
   X=-6.842297687009524E-02  Y= 9.429126817220428E-01  Z= 4.143187104036840E-01
  VX=-1.695115058702848E-02 VY=-2.997207899955317E-03 VZ=-2.239432528215744E-03
Asteroid physical parameters (km, seconds, rotational period in hours):        
   GM= n.a.                RAD= n.a.               ROTPER= n.a.                
   H= 26.5                 G= .150                 B-V= n.a.                   
                           ALBEDO= n.a.            STYP= n.a.                  
*******************************************************************************
 Date__(UT)__HR:MN     R.A._________(ICRF)_________DEC
******************************************************
$$SOE
 2018-Dec-09 01:48     07 12 53.401996 +33 06 28.75504
 2018-Dec-09 01:49     07 12 53.454875 +33 06 28.55023
 2018-Dec-09 01:50     07 12 53.507642 +33 06 28.34518
 2018-Dec-09 01:51     07 12 53.560298 +33 06 28.13989
 2018-Dec-09 01:52     07 12 53.612844 +33 06 27.93435
 2018-Dec-09 01:53     07 12 53.665278 +33 06 27.72858
 2018-Dec-09 01:54     07 12 53.717602 +33 06 27.52255
 2018-Dec-09 01:55     07 12 53.769815 +33 06 27.31627
 2018-Dec-09 01:56     07 12 53.821918 +33 06 27.10973
 2018-Dec-09 01:57     07 12 53.873911 +33 06 26.90293
 2018-Dec-09 01:58     07 12 53.925793 +33 06 26.69588
 2018-Dec-09 01:59     07 12 53.977566 +33 06 26.48855
 2018-Dec-09 02:00     07 12 54.029229 +33 06 26.28096
 2018-Dec-09 02:01     07 12 54.080782 +33 06 26.07309
 2018-Dec-09 02:02     07 12 54.132226 +33 06 25.86495
 2018-Dec-09 02:03  r  07 12 54.183560 +33 06 25.65653
 2018-Dec-09 02:04     07 12 54.234785 +33 06 25.44782
 2018-Dec-09 02:05     07 12 54.285901 +33 06 25.23884
 2018-Dec-09 02:06     07 12 54.336909 +33 06 25.02956
 2018-Dec-09 02:07     07 12 54.387807 +33 06 24.81999
 2018-Dec-09 02:08     07 12 54.438597 +33 06 24.61012
 2018-Dec-09 02:09     07 12 54.489279 +33 06 24.39996
 2018-Dec-09 02:10     07 12 54.539853 +33 06 24.18949
 2018-Dec-09 02:11     07 12 54.590318 +33 06 23.97872
 2018-Dec-09 02:12     07 12 54.640676 +33 06 23.76764
 2018-Dec-09 02:13     07 12 54.690926 +33 06 23.55625
 2018-Dec-09 02:14     07 12 54.741068 +33 06 23.34454
 2018-Dec-09 02:15     07 12 54.791103 +33 06 23.13252
 2018-Dec-09 02:16     07 12 54.841031 +33 06 22.92017
 2018-Dec-09 02:17     07 12 54.890852 +33 06 22.70750
 2018-Dec-09 02:18     07 12 54.940567 +33 06 22.49450
 2018-Dec-09 02:19     07 12 54.990175 +33 06 22.28117
 2018-Dec-09 02:20     07 12 55.039676 +33 06 22.06751
 2018-Dec-09 02:21     07 12 55.089071 +33 06 21.85351
 2018-Dec-09 02:22     07 12 55.138360 +33 06 21.63917
 2018-Dec-09 02:23     07 12 55.187544 +33 06 21.42448
 2018-Dec-09 02:24     07 12 55.236622 +33 06 21.20945
 2018-Dec-09 02:25     07 12 55.285594 +33 06 20.99407
 2018-Dec-09 02:26     07 12 55.334462 +33 06 20.77833
 2018-Dec-09 02:27     07 12 55.383224 +33 06 20.56224
 2018-Dec-09 02:28     07 12 55.431881 +33 06 20.34579
 2018-Dec-09 02:29     07 12 55.480434 +33 06 20.12898
 2018-Dec-09 02:30     07 12 55.528883 +33 06 19.91180
 2018-Dec-09 02:31     07 12 55.577227 +33 06 19.69425
 2018-Dec-09 02:32     07 12 55.625468 +33 06 19.47633
 2018-Dec-09 02:33     07 12 55.673605 +33 06 19.25804
 2018-Dec-09 02:34     07 12 55.721638 +33 06 19.03936
 2018-Dec-09 02:35     07 12 55.769568 +33 06 18.82031
 2018-Dec-09 02:36     07 12 55.817395 +33 06 18.60087
 2018-Dec-09 02:37     07 12 55.865119 +33 06 18.38104
 2018-Dec-09 02:38     07 12 55.912741 +33 06 18.16082
 2018-Dec-09 02:39     07 12 55.960260 +33 06 17.94021
 2018-Dec-09 02:40     07 12 56.007677 +33 06 17.71921
 2018-Dec-09 02:41     07 12 56.054993 +33 06 17.49780
 2018-Dec-09 02:42     07 12 56.102206 +33 06 17.27599
 2018-Dec-09 02:43     07 12 56.149318 +33 06 17.05377
 2018-Dec-09 02:44     07 12 56.196329 +33 06 16.83115
 2018-Dec-09 02:45     07 12 56.243239 +33 06 16.60811
 2018-Dec-09 02:46     07 12 56.290049 +33 06 16.38466
 2018-Dec-09 02:47     07 12 56.336757 +33 06 16.16079
 2018-Dec-09 02:48     07 12 56.383366 +33 06 15.93650
 2018-Dec-09 02:49     07 12 56.429875 +33 06 15.71178
 2018-Dec-09 02:50     07 12 56.476284 +33 06 15.48664
 2018-Dec-09 02:51     07 12 56.522593 +33 06 15.26107
 2018-Dec-09 02:52     07 12 56.568803 +33 06 15.03506
 2018-Dec-09 02:53     07 12 56.614915 +33 06 14.80862
 2018-Dec-09 02:54     07 12 56.660927 +33 06 14.58174
 2018-Dec-09 02:55     07 12 56.706841 +33 06 14.35442
 2018-Dec-09 02:56     07 12 56.752657 +33 06 14.12665
 2018-Dec-09 02:57     07 12 56.798376 +33 06 13.89843
 2018-Dec-09 02:58     07 12 56.843996 +33 06 13.66977
 2018-Dec-09 02:59     07 12 56.889519 +33 06 13.44065
 2018-Dec-09 03:00     07 12 56.934945 +33 06 13.21107
 2018-Dec-09 03:01     07 12 56.980274 +33 06 12.98104
 2018-Dec-09 03:02     07 12 57.025507 +33 06 12.75054
 2018-Dec-09 03:03     07 12 57.070643 +33 06 12.51958
 2018-Dec-09 03:04     07 12 57.115684 +33 06 12.28815
 2018-Dec-09 03:05     07 12 57.160628 +33 06 12.05624
 2018-Dec-09 03:06     07 12 57.205477 +33 06 11.82387
 2018-Dec-09 03:07     07 12 57.250231 +33 06 11.59101
 2018-Dec-09 03:08     07 12 57.294890 +33 06 11.35768
 2018-Dec-09 03:09     07 12 57.339455 +33 06 11.12387
 2018-Dec-09 03:10     07 12 57.383925 +33 06 10.88957
 2018-Dec-09 03:11     07 12 57.428301 +33 06 10.65478
 2018-Dec-09 03:12     07 12 57.472584 +33 06 10.41950
 2018-Dec-09 03:13     07 12 57.516773 +33 06 10.18372
 2018-Dec-09 03:14     07 12 57.560868 +33 06 09.94745
 2018-Dec-09 03:15     07 12 57.604872 +33 06 09.71069
 2018-Dec-09 03:16     07 12 57.648782 +33 06 09.47341
 2018-Dec-09 03:17     07 12 57.692600 +33 06 09.23564
 2018-Dec-09 03:18     07 12 57.736327 +33 06 08.99735
 2018-Dec-09 03:19     07 12 57.779961 +33 06 08.75856
 2018-Dec-09 03:20     07 12 57.823505 +33 06 08.51925
 2018-Dec-09 03:21     07 12 57.866957 +33 06 08.27943
 2018-Dec-09 03:22     07 12 57.910319 +33 06 08.03908
 2018-Dec-09 03:23     07 12 57.953590 +33 06 07.79822
 2018-Dec-09 03:24     07 12 57.996771 +33 06 07.55683
 2018-Dec-09 03:25     07 12 58.039862 +33 06 07.31492
 2018-Dec-09 03:26     07 12 58.082864 +33 06 07.07247
 2018-Dec-09 03:27     07 12 58.125777 +33 06 06.82950
 2018-Dec-09 03:28     07 12 58.168601 +33 06 06.58599
 2018-Dec-09 03:29     07 12 58.211336 +33 06 06.34194
 2018-Dec-09 03:30     07 12 58.253984 +33 06 06.09735
 2018-Dec-09 03:31     07 12 58.296543 +33 06 05.85222
 2018-Dec-09 03:32     07 12 58.339015 +33 06 05.60654
 2018-Dec-09 03:33     07 12 58.381400 +33 06 05.36031
 2018-Dec-09 03:34     07 12 58.423698 +33 06 05.11354
 2018-Dec-09 03:35     07 12 58.465909 +33 06 04.86621
 2018-Dec-09 03:36     07 12 58.508034 +33 06 04.61832
 2018-Dec-09 03:37     07 12 58.550073 +33 06 04.36988
 2018-Dec-09 03:38     07 12 58.592027 +33 06 04.12088
 2018-Dec-09 03:39     07 12 58.633896 +33 06 03.87131
 2018-Dec-09 03:40     07 12 58.675679 +33 06 03.62117
 2018-Dec-09 03:41     07 12 58.717379 +33 06 03.37047
 2018-Dec-09 03:42     07 12 58.758994 +33 06 03.11920
 2018-Dec-09 03:43     07 12 58.800525 +33 06 02.86735
 2018-Dec-09 03:44     07 12 58.841973 +33 06 02.61492
 2018-Dec-09 03:45     07 12 58.883337 +33 06 02.36192
 2018-Dec-09 03:46     07 12 58.924619 +33 06 02.10834
 2018-Dec-09 03:47     07 12 58.965818 +33 06 01.85417
 2018-Dec-09 03:48     07 12 59.006936 +33 06 01.59942
 2018-Dec-09 03:49     07 12 59.047971 +33 06 01.34407
 2018-Dec-09 03:50     07 12 59.088926 +33 06 01.08814
